NORAD_CAT_ID,OBJECT_NAME,OBJECT_TYPE,EPOCH,MEAN_MOTION,ECCENTRICITY,INCLINATION,RA_OF_ASC_NODE,ARG_OF_PERICENTER,MEAN_ANOMALY,BSTAR,MEAN_MOTION_DOT,MEAN_MOTION_DDOT,TLE_LINE0,TLE_LINE1,TLE_LINE2,SEMIMAJOR_AXIS,PERIOD,APOGEE,PERIGEE,DECAYED
52350.0,STARLINK-3754,PAYLOAD,2024-01-21 23:19:06,15.08838296,0.0001774,53.2173,90.4318,124.9853,235.1306,0.00014433,2.01e-05,0.0,0 STARLINK-3754,1 52350U 22045V   24021.97160320  .00002010  00000-0  14433-3 0  9996,2 52350  53.2173  90.4318 0001774 124.9853 235.1306 15.08838296 98371,6917.886,95.438,540.978,538.523,0.0
52350.0,STARLINK-3754,PAYLOAD,2024-01-22 12:02:11,15.08843778,0.0001864,53.2164,88.0601,87.1993,272.9213,0.00022592,3.31e-05,0.0,0 STARLINK-3754,1 52350U 22045V   24022.50152669  .00003310  00000-0  22592-3 0  9992,2 52350  53.2164  88.0601 0001864  87.1993 272.9213 15.08843778 98450,6917.869,95.437,541.023,538.444,0.0
52350.0,STARLINK-3754,PAYLOAD,2024-01-23 10:17:35,15.08840378,0.0001971,53.2177,83.8978,79.7502,280.3712,0.00012375,1.682e-05,0.0,0 STARLINK-3754,1 52350U 22045V   24023.42888883  .00001682  00000-0  12375-3 0  9996,2 52350  53.2177  83.8978 0001971  79.7502 280.3712 15.08840378 98591,6917.879,95.438,541.108,538.381,0.0
52350.0,STARLINK-3754,PAYLOAD,2024-01-24 10:08:23,15.08839139,0.0001825,53.2175,79.4376,95.3535,264.7665,0.00012551,1.71e-05,0.0,0 STARLINK-3754,1 52350U 22045V   24024.42249107  .00001710  00000-0  12551-3 0  9995,2 52350  53.2175  79.4376 0001825  95.3535 264.7665 15.08839139 98743,6917.883,95.438,541.011,538.486,0.0
52350.0,STARLINK-3754,PAYLOAD,2024-01-25 08:23:47,15.0884018,0.0001947,53.2186,75.2772,109.6651,250.4552,0.00012934,1.771e-05,0.0,0 STARLINK-3754,1 52350U 22045V   24025.34985033  .00001771  00000-0  12934-3 0  9994,2 52350  53.2186  75.2772 0001947 109.6651 250.4552 15.08840180 98882,6917.88,95.438,541.092,538.398,0.0
52350.0,STARLINK-3754,PAYLOAD,2024-01-26 09:49:57,15.08841183,0.0002019,53.2188,70.5187,117.042,243.0778,0.00011235,1.5e-05,0.0,0 STARLINK-3754,1 52350U 22045V   24026.40969114  .00001500  00000-0  11235-3 0  9997,2 52350  53.2188  70.5187 0002019 117.0420 243.0778 15.08841183 99041,6917.877,95.437,541.138,538.345,0.0
52350.0,STARLINK-3754,PAYLOAD,2024-01-27 09:40:44,15.08838888,0.0001872,53.2187,66.0559,109.8867,250.2327,8.2211e-05,1.02e-05,0.0,0 STARLINK-3754,1 52350U 22045V   24027.40329475  .00001020  00000-0  82211-4 0  9998,2 52350  53.2187  66.0559 0001872 109.8867 250.2327 15.08838888 99197,6917.884,95.438,541.044,538.454,0.0
52350.0,STARLINK-3754,PAYLOAD,2024-01-28 11:06:54,15.08840932,0.0001755,53.2186,61.2948,99.4485,260.6706,7.4407e-05,8.96e-06,0.0,0 STARLINK-3754,1 52350U 22045V   24028.46313548  .00000896  00000-0  74407-4 0  9997,2 52350  53.2186  61.2948 0001755  99.4485 260.6706 15.08840932 99352,6917.878,95.437,540.957,538.528,0.0
52350.0,STARLINK-3754,PAYLOAD,2024-01-29 10:57:42,15.08841392,0.0001821,53.2189,56.8327,92.1487,267.9713,0.00010659,1.409e-05,0.0,0 STARLINK-3754,1 52350U 22045V   24029.45673641  .00001409  00000-0  10659-3 0  9999,2 52350  53.2189  56.8327 0001821  92.1487 267.9713 15.08841392 99508,6917.876,95.437,541.001,538.481,0.0
52350.0,STARLINK-3754,PAYLOAD,2024-01-30 01:16:10,15.08836036,0.0001857,53.2185,54.1613,72.6842,287.4353,0.00010007,1.305e-05,0.0,0 STARLINK-3754,1 52350U 22045V   24030.05290154  .00001305  00000-0  10007-3 0  9993,2 52350  53.2185  54.1613 0001857  72.6842 287.4353 15.08836036 99595,6917.893,95.438,541.042,538.473,0.0
52350.0,STARLINK-3754,PAYLOAD,2024-01-30 09:13:06,15.08837745,0.0001793,53.2183,52.6728,77.9268,282.1925,7.7065e-05,9.39e-06,0.0,0 STARLINK-3754,1 52350U 22045V   24030.38410200  .00000939  00000-0  77065-4 0  9995,2 52350  53.2183  52.6728 0001793  77.9268 282.1925 15.08837745 99643,6917.887,95.438,540.993,538.512,0.0
52350.0,STARLINK-3754,PAYLOAD,2024-01-31 07:28:29,15.08848052,0.0001723,53.2185,48.5092,81.0969,279.0218,8.815e-05,1.115e-05,0.0,0 STARLINK-3754,1 52350U 22045V   24031.31145406  .00001115  00000-0  88150-4 0  9996,2 52350  53.2185  48.5092 0001723  81.0969 279.0218 15.08848052 99788,6917.856,95.437,540.913,538.529,0.0
52350.0,STARLINK-3754,PAYLOAD,2024-02-01 10:30:03,15.08842259,0.0001636,53.2181,43.4518,102.1794,257.9382,2.7683e-05,1.53e-06,0.0,0 STARLINK-3754,1 52350U 22045V   24032.43753695  .00000153  00000-0  27683-4 0  9990,2 52350  53.2181  43.4518 0001636 102.1794 257.9382 15.08842259 99954,6917.873,95.437,540.87,538.607,0.0
52350.0,STARLINK-3754,PAYLOAD,2024-02-02 07:10:03,15.08852145,0.0001725,53.2181,39.585,108.0119,252.1062,-9.9671e-05,-1.875e-05,0.0,0 STARLINK-3754,1 52350U 22045V   24033.29865386 -.00001875  00000-0 -99671-4 0  9996,2 52350  53.2181  39.5850 0001725 108.0119 252.1062 15.08852145100088,6917.843,95.437,540.902,538.515,0.0
52350.0,STARLINK-3754,PAYLOAD,2024-02-03 03:50:05,15.08835433,0.0001665,53.2186,35.7197,101.8589,258.259,1.5685e-05,-3.8e-07,0.0,0 STARLINK-3754,1 52350U 22045V   24034.15978275 -.00000038  00000-0  15685-4 0  9996,2 52350  53.2186  35.7197 0001665 101.8589 258.2590 15.08835433100219,6917.894,95.438,540.911,538.608,0.0
52350.0,STARLINK-3754,PAYLOAD,2024-02-03 07:00:51,15.0883626,0.0001642,53.2185,35.1251,98.8397,261.2781,2.199e-05,6.2e-07,0.0,0 STARLINK-3754,1 52350U 22045V   24034.29226290  .00000062  00000-0  21990-4 0  9996,2 52350  53.2185  35.1251 0001642  98.8397 261.2781 15.08836260100237,6917.892,95.438,540.893,538.621,0.0
52350.0,STARLINK-3754,PAYLOAD,2024-02-03 19:43:56,15.08836227,0.0001676,53.2184,32.7495,105.0702,255.0476,5.5785e-05,6e-06,0.0,0 STARLINK-3754,1 52350U 22045V   24034.82218289  .00000600  00000-0  55785-4 0  9991,2 52350  53.2184  32.7495 0001676 105.0702 255.0476 15.08836227100311,6917.892,95.438,540.916,538.597,0.0
52350.0,STARLINK-3754,PAYLOAD,2024-02-04 10:02:24,15.08845453,0.0001612,53.2178,30.0709,95.4472,264.6704,9.4004e-05,1.209e-05,0.0,0 STARLINK-3754,1 52350U 22045V   24035.41833707  .00001209  00000-0  94004-4 0  9998,2 52350  53.2178  30.0709 0001612  95.4472 264.6704 15.08845453100400,6917.864,95.437,540.844,538.614,0.0
52350.0,STARLINK-3754,PAYLOAD,2024-02-05 03:31:39,15.08837463,0.0001651,53.2193,26.7952,93.5098,266.6083,5.4331e-05,5.77e-06,0.0,0 STARLINK-3754,1 52350U 22045V   24036.14698437  .00000577  00000-0  54331-4 0  9994,2 52350  53.2193  26.7952 0001651  93.5098 266.6083 15.08837463100511,6917.888,95.438,540.895,538.611,0.0
52350.0,STARLINK-3754,PAYLOAD,2024-02-05 06:42:25,15.08837959,0.0001802,53.2184,26.2022,73.6052,286.5138,5.6572e-05,6.12e-06,0.0,0 STARLINK-3754,1 52350U 22045V   24036.27946600  .00000612  00000-0  56572-4 0  9995,2 52350  53.2184  26.2022 0001802  73.6052 286.5138 15.08837959100535,6917.887,95.438,540.998,538.505,0.0
52350.0,STARLINK-3754,PAYLOAD,2024-02-06 03:22:27,15.08810024,0.0001785,53.2187,22.3363,67.5966,292.5215,0.00050423,7.739e-05,0.0,0 STARLINK-3754,1 52350U 22045V   24037.14059268  .00007739  00000-0  50423-3 0  9992,2 52350  53.2187  22.3363 0001785  67.5966 292.5215 15.08810024100660,6917.972,95.439,541.072,538.602,0.0
52350.0,STARLINK-3754,PAYLOAD,2024-02-06 08:08:35,15.08851512,0.0001886,53.2199,21.4436,75.0527,285.0674,0.00011729,1.58e-05,0.0,0 STARLINK-3754,1 52350U 22045V   24037.33929587  .00001580  00000-0  11729-3 0  9997,2 52350  53.2199  21.4436 0001886  75.0527 285.0674 15.08851512100699,6917.845,95.437,541.015,538.405,0.0
52350.0,STARLINK-3754,PAYLOAD,2024-02-07 03:13:13,15.08841037,0.0002186,53.2212,17.8638,62.6608,297.4606,5.5746e-05,5.99e-06,0.0,0 STARLINK-3754,1 52350U 22045V   24038.13418338  .00000599  00000-0  55746-4 0  9990,2 52350  53.2212  17.8638 0002186  62.6608 297.4606 15.08841037100811,6917.877,95.437,541.254,538.23,0.0
52350.0,STARLINK-3754,PAYLOAD,2024-02-07 04:48:36,15.08841316,0.0002309,53.2217,17.5664,60.5386,299.5837,6.3692e-05,7.26e-06,0.0,0 STARLINK-3754,1 52350U 22045V   24038.20042333  .00000726  00000-0  63692-4 0  9997,2 52350  53.2217  17.5664 0002309  60.5386 299.5837 15.08841316100829,6917.876,95.437,541.339,538.144,0.0
52350.0,STARLINK-3754,PAYLOAD,2024-02-07 15:56:18,15.088425,0.0001746,53.2187,15.5033,73.237,286.8813,4.4133e-05,4.14e-06,0.0,0 STARLINK-3754,1 52350U 22045V   24038.66410246  .00000414  00000-0  44133-4 0  9992,2 52350  53.2187  15.5033 0001746  73.2370 286.8813 15.08842500100897,6917.873,95.437,540.946,538.53,0.0
52350.0,STARLINK-3754,PAYLOAD,2024-02-08 04:39:23,15.08845505,0.0001543,53.219,13.1196,113.4271,246.6884,-5.3695e-05,-1.143e-05,0.0,0 STARLINK-3754,1 52350U 22045V   24039.19402134 -.00001143  00000-0 -53695-4 0  9993,2 52350  53.2190  13.1196 0001543 113.4271 246.6884 15.08845505100976,6917.864,95.437,540.796,538.661,0.0
52350.0,STARLINK-3754,PAYLOAD,2024-02-09 02:54:47,15.08835414,0.0001691,53.2197,8.9555,120.161,239.955,7.5973e-05,9.21e-06,0.0,0 STARLINK-3754,1 52350U 22045V   24040.12138400  .00000921  00000-0  75973-4 0  9994,2 52350  53.2197   8.9555 0001691 120.1610 239.9550 15.08835414101110,6917.894,95.438,540.929,538.59,0.0
52350.0,STARLINK-3754,PAYLOAD,2024-02-09 04:30:10,15.08833878,0.0001715,53.2193,8.658,120.4334,239.6828,0.00013753,1.901e-05,0.0,0 STARLINK-3754,1 52350U 22045V   24040.18762315  .00001901  00000-0  13753-3 0  9994,2 52350  53.2193   8.6580 0001715 120.4334 239.6828 15.08833878101122,6917.899,95.438,540.951,538.578,0.0
52350.0,STARLINK-3754,PAYLOAD,2024-02-10 07:31:44,15.08841739,0.0001593,53.2193,3.6035,108.1164,252.0002,7.3873e-05,8.88e-06,0.0,0 STARLINK-3754,1 52350U 22045V   24041.31370496  .00000888  00000-0  73873-4 0  9998,2 52350  53.2193   3.6035 0001593 108.1164 252.0002 15.08841739101296,6917.875,95.437,540.842,538.638,0.0
52350.0,STARLINK-3754,PAYLOAD,2024-02-11 07:22:31,15.08844716,0.0001599,53.2192,359.1392,113.1688,246.9472,4.516e-05,4.31e-06,0.0,0 STARLINK-3754,1 52350U 22045V   24042.30730569  .00000431  00000-0  45160-4 0  9991,2 52350  53.2192 359.1392 0001599 113.1688 246.9472 15.08844716101441,6917.866,95.437,540.837,538.625,0.0
